NORAD_CAT_ID,OBJECT_NAME,OBJECT_TYPE,EPOCH,MEAN_MOTION,ECCENTRICITY,INCLINATION,RA_OF_ASC_NODE,ARG_OF_PERICENTER,MEAN_ANOMALY,BSTAR,MEAN_MOTION_DOT,MEAN_MOTION_DDOT,TLE_LINE0,TLE_LINE1,TLE_LINE2,SEMIMAJOR_AXIS,PERIOD,APOGEE,PERIGEE,DECAYED
51809.0,STARLINK-3607,PAYLOAD,2022-10-06 22:48:31,15.08836629,0.0001761,53.2165,189.4292,38.4487,321.663,6.7037e-05,7.79e-06,0.0,0 STARLINK-3607,1 51809U 22017AT  22279.95036097  .00000779  00000-0  67037-4 0  9996,2 51809  53.2165 189.4292 0001761  38.4487 321.6630 15.08836629 35390,6917.891,95.438,540.974,538.5369999999998,0.0
51809.0,STARLINK-3607,PAYLOAD,2022-10-07 11:31:35,15.08842445,0.0001939,53.2176,187.0499,53.7147,306.4024,0.00026983,4.009e-05,0.0,0 STARLINK-3607,1 51809U 22017AT  22280.48027213  .00004009  00000-0  26983-3 0  9990,2 51809  53.2176 187.0499 0001939  53.7147 306.4024 15.08842445 35475,6917.873000000001,95.437,541.0790000000002,538.3969999999998,0.0
51809.0,STARLINK-3607,PAYLOAD,2022-10-07 21:03:54,15.08840052,0.0001728,53.2187,185.2645,60.1667,299.9497,0.00020773,3.02e-05,0.0,0 STARLINK-3607,1 51809U 22017AT  22280.87771452  .00003020  00000-0  20773-3 0  9997,2 51809  53.2187 185.2645 0001728  60.1667 299.9497 15.08840052 35534,6917.88,95.438,540.941,538.55,0.0
51809.0,STARLINK-3607,PAYLOAD,2022-10-08 03:25:27,15.08833312,0.0001645,53.2164,184.0741,55.3751,304.7396,7.5959e-06,-1.67e-06,0.0,0 STARLINK-3607,1 51809U 22017AT  22281.14268370 -.00000167  00000-0  75959-5 0  9996,2 51809  53.2164 184.0741 0001645  55.3751 304.7396 15.08833312 35579,6917.901,95.438,540.904,538.628,0.0
51809.0,STARLINK-3607,PAYLOAD,2022-10-09 03:16:14,15.08837813,0.0001636,53.216,179.613,54.4573,305.6572,7.635900000000001e-06,-1.67e-06,0.0,0 STARLINK-3607,1 51809U 22017AT  22282.13628327 -.00000167  00000-0  76359-5 0  9993,2 51809  53.2160 179.6130 0001636  54.4573 305.6572 15.08837813 35722,6917.887,95.438,540.884,538.62,0.0
51809.0,STARLINK-3607,PAYLOAD,2022-10-09 20:45:28,15.08843054,0.0001551999999999,53.216,176.342,51.1636,308.9495,3.0865e-05,2.03e-06,0.0,0 STARLINK-3607,1 51809U 22017AT  22282.86491719  .00000203  00000-0  30865-4 0  9997,2 51809  53.2160 176.3420 0001552  51.1636 308.9495 15.08843054 35835,6917.871,95.437,540.81,538.6619999999998,0.0
51809.0,STARLINK-3607,PAYLOAD,2022-10-10 03:07:01,15.08837904,0.0001565999999999,53.2158,175.1535,63.1386,296.9766,0.00016003,2.26e-05,0.0,0 STARLINK-3607,1 51809U 22017AT  22283.12987630  .00002260  00000-0  16003-3 0  9991,2 51809  53.2158 175.1535 0001566  63.1386 296.9766 15.08837904 35874,6917.887,95.438,540.835,538.668,0.0
51809.0,STARLINK-3607,PAYLOAD,2022-10-10 09:28:34,15.08835013,0.0001740999999999,53.2158,173.963,49.9472,310.1673,7.8975e-05,9.69e-06,0.0,0 STARLINK-3607,1 51809U 22017AT  22283.39484123  .00000969  00000-0  78975-4 0  9990,2 51809  53.2158 173.9630 0001741  49.9472 310.1673 15.08835013 35919,6917.896,95.438,540.965,538.556,0.0
51809.0,STARLINK-3607,PAYLOAD,2022-10-11 02:57:49,15.08829817,0.0001694,53.2156,170.6921,48.4865,311.6272,4.1912e-05,3.79e-06,0.0,0 STARLINK-3607,1 51809U 22017AT  22284.12348775  .00000379  00000-0  41912-4 0  9990,2 51809  53.2156 170.6921 0001694  48.4865 311.6272 15.08829817 36020,6917.9119999999975,95.438,540.948,538.605,0.0
51809.0,STARLINK-3607,PAYLOAD,2022-10-11 17:16:19,15.08855265,0.0001695,53.2159,168.0154,50.1325,309.9816,-0.00058642,-9.613e-05,0.0,0 STARLINK-3607,1 51809U 22017AT  22284.71966441 -.00009613  00000-0 -58642-3 0  9990,2 51809  53.2159 168.0154 0001695  50.1325 309.9816 15.08855265 36114,6917.834,95.437,540.871,538.526,0.0
51809.0,STARLINK-3607,PAYLOAD,2022-10-12 01:13:14,15.08826872,0.0001684,53.216,166.5296,55.1496,304.9654,-7.9338e-05,-1.55e-05,0.0,0 STARLINK-3607,1 51809U 22017AT  22285.05086116 -.00001550  00000-0 -79338-4 0  9998,2 51809  53.2160 166.5296 0001684  55.1496 304.9654 15.08826872 36160,6917.920999999999,95.438,540.95,538.621,0.0
51809.0,STARLINK-3607,PAYLOAD,2022-10-12 09:10:09,15.08833237,0.0001837,53.2164,165.0423,54.7165,305.3999,1.0094e-05,-1.27e-06,0.0,0 STARLINK-3607,1 51809U 22017AT  22285.38205763 -.00000127  00000-0  10094-4 0  9997,2 51809  53.2164 165.0423 0001837  54.7165 305.3999 15.08833237 36214,6917.901,95.438,541.0369999999998,538.495,0.0
51809.0,STARLINK-3607,PAYLOAD,2022-10-13 01:04:01,15.08843213,0.0001573,53.2162,162.0704,56.2032,303.911,-8.0771e-05,-1.573e-05,0.0,0 STARLINK-3607,1 51809U 22017AT  22286.04445890 -.00001573  00000-0 -80771-4 0  9994,2 51809  53.2162 162.0704 0001573  56.2032 303.9110 15.08843213 36313,6917.871,95.437,540.8240000000002,538.6469999999998,0.0
51809.0,STARLINK-3607,PAYLOAD,2022-10-13 20:08:38,15.08835448,0.0001719,53.2159,158.5014,53.8648,306.2503,0.00016266,2.301e-05,0.0,0 STARLINK-3607,1 51809U 22017AT  22286.83933834  .00002301  00000-0  16266-3 0  9996,2 51809  53.2159 158.5014 0001719  53.8648 306.2503 15.08835448 36437,6917.894,95.438,540.948,538.57,0.0
51809.0,STARLINK-3607,PAYLOAD,2022-10-13 21:44:02,15.08835372,0.0001746,53.2159,158.2038,53.358,306.7572,0.00016011,2.261e-05,0.0,0 STARLINK-3607,1 51809U 22017AT  22286.90557894  .00002261  00000-0  16011-3 0  9995,2 51809  53.2159 158.2038 0001746  53.3580 306.7572 15.08835372 36448,6917.895,95.438,540.967,538.552,0.0
51809.0,STARLINK-3607,PAYLOAD,2022-10-14 08:51:43,15.088470499999998,0.0001796,53.2159,156.1222,53.4978,306.618,0.00015478,2.177e-05,0.0,0 STARLINK-3607,1 51809U 22017AT  22287.36925162  .00002177  00000-0  15478-3 0  9995,2 51809  53.2159 156.1222 0001796  53.4978 306.6180 15.08847050 36515,6917.859,95.437,540.966,538.481,0.0
51809.0,STARLINK-3607,PAYLOAD,2022-10-14 18:24:02,15.08846573,0.0001797,53.2157,154.338,55.1978,304.9183,0.0001176,1.584e-05,0.0,0 STARLINK-3607,1 51809U 22017AT  22287.76669127  .00001584  00000-0  11760-3 0  9996,2 51809  53.2157 154.3380 0001797  55.1978 304.9183 15.08846573 36577,6917.86,95.437,540.9680000000002,538.482,0.0
51809.0,STARLINK-3607,PAYLOAD,2022-10-15 00:45:34,15.08854611,0.0001597,53.2163,153.1482,59.9703,300.1448,9.0659e-05,1.156e-05,0.0,0 STARLINK-3607,1 51809U 22017AT  22288.03164492  .00001156  00000-0  90659-4 0  9992,2 51809  53.2163 153.1482 0001597  59.9703 300.1448 15.08854611 36619,6917.8359999999975,95.437,540.806,538.596,0.0
51809.0,STARLINK-3607,PAYLOAD,2022-10-15 18:14:48,15.0884426,0.000178,53.2152,149.8767,60.6269,299.4901,8.3456e-06,-1.55e-06,0.0,0 STARLINK-3607,1 51809U 22017AT  22288.76028909 -.00000155  00000-0  83456-5 0  9991,2 51809  53.2152 149.8767 0001780  60.6269 299.4901 15.08844260 36720,6917.8669999999975,95.437,540.964,538.501,0.0
51809.0,STARLINK-3607,PAYLOAD,2022-10-16 06:57:54,15.08834671,0.0001715,53.2145,147.4954,52.5383,307.5765,-3.7112e-05,-8.79e-06,0.0,0 STARLINK-3607,1 51809U 22017AT  22289.29021291 -.00000879  00000-0 -37112-4 0  9998,2 51809  53.2145 147.4954 0001715  52.5383 307.5765 15.08834671 36802,6917.897,95.438,540.948,538.575,0.0
51809.0,STARLINK-3607,PAYLOAD,2022-10-16 19:41:00,15.08823899,0.0001609,53.2166,145.1203,57.3225,302.7922,-0.00014329,-2.567e-05,0.0,0 STARLINK-3607,1 51809U 22017AT  22289.82014822 -.00002567  00000-0 -14329-3 0  9999,2 51809  53.2166 145.1203 0001609  57.3225 302.7922 15.08823899 36887,6917.93,95.439,540.908,538.682,0.0
51809.0,STARLINK-3607,PAYLOAD,2022-10-17 00:27:10,15.08828557,0.0001746,53.2164,144.2289,57.0943,303.0217,-0.00016972,-2.987e-05,0.0,0 STARLINK-3607,1 51809U 22017AT  22290.01886839 -.00002987  00000-0 -16972-3 0  9999,2 51809  53.2164 144.2289 0001746  57.0943 303.0217 15.08828557 36916,6917.915,95.438,540.988,538.572,0.0
51809.0,STARLINK-3607,PAYLOAD,2022-10-17 21:07:10,15.08831548,0.0001747,53.2162,140.3626,50.3107,309.8039,1.6982e-05,-1.8e-07,0.0,0 STARLINK-3607,1 51809U 22017AT  22290.87998590 -.00000018  00000-0  16982-4 0  9995,2 51809  53.2162 140.3626 0001747  50.3107 309.8039 15.08831548 37040,6917.906,95.438,540.98,538.563,0.0
51809.0,STARLINK-3607,PAYLOAD,2022-10-18 09:50:15,15.08835721,0.0001561,53.2153,137.9822,61.4509,298.664,0.00012848,1.757e-05,0.0,0 STARLINK-3607,1 51809U 22017AT  22291.40990240  .00001757  00000-0  12848-3 0  9995,2 51809  53.2153 137.9822 0001561  61.4509 298.6640 15.08835721 37122,6917.893,95.438,540.8380000000002,538.679,0.0
51809.0,STARLINK-3607,PAYLOAD,2022-10-18 16:11:48,15.08822895,0.0001638,53.2153,136.7929,52.5407,307.5734,0.00017557,2.506e-05,0.0,0 STARLINK-3607,1 51809U 22017AT  22291.67487245  .00002506  00000-0  17557-3 0  9995,2 51809  53.2153 136.7929 0001638  52.5407 307.5734 15.08822895 37166,6917.933000000001,95.439,540.931,538.665,0.0
51809.0,STARLINK-3607,PAYLOAD,2022-10-18 20:57:58,15.08821041,0.0001616,53.2152,135.9002,49.6637,310.4496,0.00010548,1.39e-05,0.0,0 STARLINK-3607,1 51809U 22017AT  22291.87359807  .00001390  00000-0  10548-3 0  9992,2 51809  53.2152 135.9002 0001616  49.6637 310.4496 15.08821041 37199,6917.938,95.439,540.9209999999998,538.685,0.0
51809.0,STARLINK-3607,PAYLOAD,2022-10-19 12:51:50,15.08827336,0.0001696999999999,53.2153,132.9267,54.5514,305.5637,0.00017948,2.569e-05,0.0,0 STARLINK-3607,1 51809U 22017AT  22292.53599824  .00002569  00000-0  17948-3 0  9991,2 51809  53.2153 132.9267 0001697  54.5514 305.5637 15.08827336 37294,6917.919,95.438,540.9580000000002,538.61,0.0
51809.0,STARLINK-3607,PAYLOAD,2022-10-19 16:02:36,15.08837781,0.0001727,53.215,132.3316,53.2904,306.8246,8.1977e-05,1.017e-05,0.0,0 STARLINK-3607,1 51809U 22017AT  22292.66847393  .00001017  00000-0  81977-4 0  9993,2 51809  53.2150 132.3316 0001727  53.2904 306.8246 15.08837781 37311,6917.887,95.438,540.947,538.557,0.0
51809.0,STARLINK-3607,PAYLOAD,2022-10-20 06:21:03,15.08844997,0.0001713,53.2153,129.655,53.3553,306.7596,0.00010737,1.421e-05,0.0,0 STARLINK-3607,1 51809U 22017AT  22293.26462847  .00001421  00000-0  10737-3 0  9991,2 51809  53.2153 129.6550 0001713  53.3553 306.7596 15.08844997 37403,6917.865,95.437,540.915,538.545,0.0
